start=new Date('2023-06-07T00:00:00.000Z').valueOf();
sats=[{"ECCENTRICITY":"0.00008050","SITE":"AFWTR","BSTAR":"0.00007992900000","CENTER_NAME":"EARTH","EPOCH":"2023-06-06T19:32:09.252672","DECAY_DATE":null,"CLASSIFICATION_TYPE":"U","LAUNCH_DATE":"2022-08-12","MEAN_MOTION_DDOT":"0.0000000000000","TLE_LINE1":"1 53507U 22099AU  23157.81399598  .00000968  00000-0  79929-4 0  9995","TIME_SYSTEM":"UTC","PERIOD":"95.919","MEAN_ANOMALY":"237.5588","RCS_SIZE":"LARGE","RA_OF_ASC_NODE":"279.0489","OBJECT_ID":"2022-099AU","ARG_OF_PERICENTER":"122.5714","APOAPSIS":"563.559","NORAD_CAT_ID":"53507","TLE_LINE2":"2 53507  97.6554 279.0489 0000805 122.5714 237.5588 15.01263673 44923","MEAN_MOTION_DOT":"0.00000968","COUNTRY_CODE":"US","MEAN_MOTION":"15.01263673","OBJECT_TYPE":"PAYLOAD","SEMIMAJOR_AXIS":"6941.136","OBJECT_NAME":"STARLINK-4444","ELEMENT_SET_NO":"999","FILE":"3926571","PERIAPSIS":"562.442","GP_ID":"233358612","REF_FRAME":"TEME","MEAN_ELEMENT_THEORY":"SGP4","REV_AT_EPOCH":"4492","EPHEMERIS_TYPE":"0","INCLINATION":"97.6554"},{"MEAN_ELEMENT_THEORY":"SGP4","REF_FRAME":"TEME","EPHEMERIS_TYPE":"0","REV_AT_EPOCH":"4491","INCLINATION":"97.6561","MEAN_MOTION":"15.01270430","OBJECT_TYPE":"PAYLOAD","COUNTRY_CODE":"US","MEAN_MOTION_DOT":"-0.00000302","GP_ID":"233358862","OBJECT_NAME":"STARLINK-4443","SEMIMAJOR_AXIS":"6941.115","PERIAPSIS":"562.344","FILE":"3926571","ELEMENT_SET_NO":"999","RA_OF_ASC_NODE":"278.9863","MEAN_ANOMALY":"209.3648","RCS_SIZE":"LARGE","TLE_LINE2":"2 53508  97.6561 278.9863 0000916 150.7628 209.3648 15.01270430 44918","NORAD_CAT_ID":"53508","OBJECT_ID":"2022-099AV","APOAPSIS":"563.616","ARG_OF_PERICENTER":"150.7628","CENTER_NAME":"EARTH","EPOCH":"2023-06-06T18:01:30.267264","DECAY_DATE":null,"SITE":"AFWTR","BSTAR":"-0.00001888500000","ECCENTRICITY":"0.00009160","TIME_SYSTEM":"UTC","TLE_LINE1":"1 53508U 22099AV  23157.75104476 -.00000302  00000-0 -18885-4 0  9996","MEAN_MOTION_DDOT":"0.0000000000000","PERIOD":"95.919","CLASSIFICATION_TYPE":"U","LAUNCH_DATE":"2022-08-12"},{"CENTER_NAME":"EARTH","EPOCH":"2023-06-06T08:15:19.426176","DECAY_DATE":null,"ECCENTRICITY":"0.00010970","SITE":"AFWTR","BSTAR":"0.00002318500000","TIME_SYSTEM":"UTC","MEAN_MOTION_DDOT":"0.0000000000000","TLE_LINE1":"1 53509U 22099AW  23157.34397484  .00000239  00000-0  23185-4 0  9991","PERIOD":"95.919","CLASSIFICATION_TYPE":"U","LAUNCH_DATE":"2022-08-12","RA_OF_ASC_NODE":"278.5858","MEAN_ANOMALY":"243.5876","RCS_SIZE":"LARGE","NORAD_CAT_ID":"53509","TLE_LINE2":"2 53509  97.6559 278.5858 0001097 116.5460 243.5876 15.01260880 44855","OBJECT_ID":"2022-099AW","APOAPSIS":"563.771","ARG_OF_PERICENTER":"116.5460","MEAN_MOTION":"15.01260880","OBJECT_TYPE":"PAYLOAD","MEAN_MOTION_DOT":"0.00000239","COUNTRY_CODE":"US","GP_ID":"233326282","SEMIMAJOR_AXIS":"6941.144","OBJECT_NAME":"STARLINK-4402","PERIAPSIS":"562.248","ELEMENT_SET_NO":"999","FILE":"3926325","MEAN_ELEMENT_THEORY":"SGP4","REF_FRAME":"TEME","EPHEMERIS_TYPE":"0","REV_AT_EPOCH":"4485","INCLINATION":"97.6559"},{"RA_OF_ASC_NODE":"278.5890","MEAN_ANOMALY":"260.1161","RCS_SIZE":"LARGE","NORAD_CAT_ID":"53510","TLE_LINE2":"2 53510  97.6575 278.5890 0001438 100.0226 260.1161 15.01267847 44850","OBJECT_ID":"2022-099AX","APOAPSIS":"563.986","ARG_OF_PERICENTER":"100.0226","CENTER_NAME":"EARTH","DECAY_DATE":null,"EPOCH":"2023-06-06T08:17:37.811328","BSTAR":"0.00007921800000","SITE":"AFWTR","ECCENTRICITY":"0.00014380","TIME_SYSTEM":"UTC","TLE_LINE1":"1 53510U 22099AX  23157.34557652  .00000959  00000-0  79218-4 0  9995","MEAN_MOTION_DDOT":"0.0000000000000","PERIOD":"95.919","CLASSIFICATION_TYPE":"U","LAUNCH_DATE":"2022-08-12","MEAN_ELEMENT_THEORY":"SGP4","REF_FRAME":"TEME","EPHEMERIS_TYPE":"0","REV_AT_EPOCH":"4485","INCLINATION":"97.6575","MEAN_MOTION":"15.01267847","OBJECT_TYPE":"PAYLOAD","COUNTRY_CODE":"US","MEAN_MOTION_DOT":"0.00000959","GP_ID":"233326532","SEMIMAJOR_AXIS":"6941.123","OBJECT_NAME":"STARLINK-4441","PERIAPSIS":"561.990","ELEMENT_SET_NO":"999","FILE":"3926325"},{"REF_FRAME":"TEME","MEAN_ELEMENT_THEORY":"SGP4","INCLINATION":"53.2161","REV_AT_EPOCH":"4415","EPHEMERIS_TYPE":"0","MEAN_MOTION_DOT":"0.00000413","COUNTRY_CODE":"US","OBJECT_TYPE":"PAYLOAD","MEAN_MOTION":"15.08853709","ELEMENT_SET_NO":"999","FILE":"3926571","PERIAPSIS":"539.110","OBJECT_NAME":"STARLINK-4511","SEMIMAJOR_AXIS":"6917.838","GP_ID":"233359615","RCS_SIZE":"LARGE","MEAN_ANOMALY":"250.7876","RA_OF_ASC_NODE":"274.2505","ARG_OF_PERICENTER":"109.3209","APOAPSIS":"540.297","OBJECT_ID":"2022-101A","NORAD_CAT_ID":"53527","TLE_LINE2":"2 53527  53.2161 274.2505 0000858 109.3209 250.7876 15.08853709 44157","SITE":"AFETR","BSTAR":"0.00004403500000","ECCENTRICITY":"0.00008580","EPOCH":"2023-06-06T19:03:46.378656","DECAY_DATE":null,"CENTER_NAME":"EARTH","LAUNCH_DATE":"2022-08-19","CLASSIFICATION_TYPE":"U","PERIOD":"95.437","TLE_LINE1":"1 53527U 22101A   23157.79428679  .00000413  00000-0  44035-4 0  9996","MEAN_MOTION_DDOT":"0.0000000000000","TIME_SYSTEM":"UTC"},{"SEMIMAJOR_AXIS":"6917.717","OBJECT_NAME":"STARLINK-4503","ELEMENT_SET_NO":"999","FILE":"3926571","PERIAPSIS":"538.896","GP_ID":"233359866","COUNTRY_CODE":"US","MEAN_MOTION_DOT":"0.00020613","MEAN_MOTION":"15.08893370","OBJECT_TYPE":"PAYLOAD","REV_AT_EPOCH":"4415","EPHEMERIS_TYPE":"0","INCLINATION":"53.2158","REF_FRAME":"TEME","MEAN_ELEMENT_THEORY":"SGP4","CLASSIFICATION_TYPE":"U","LAUNCH_DATE":"2022-08-19","MEAN_MOTION_DDOT":"0.0000000000000","TLE_LINE1":"1 53528U 22101B   23157.79795590  .00020613  00000-0  13075-2 0  9998","TIME_SYSTEM":"UTC","PERIOD":"95.434","SITE":"AFETR","BSTAR":"0.00130750000000","ECCENTRICITY":"0.00009920","CENTER_NAME":"EARTH","EPOCH":"2023-06-06T19:09:03.389760","DECAY_DATE":null,"OBJECT_ID":"2022-101B","ARG_OF_PERICENTER":"73.4173","APOAPSIS":"540.269","NORAD_CAT_ID":"53528","TLE_LINE2":"2 53528  53.2158 274.2331 0000992  73.4173 286.6928 15.08893370 44155","MEAN_ANOMALY":"286.6928","RCS_SIZE":"LARGE","RA_OF_ASC_NODE":"274.2331"},{"GP_ID":"233358614","PERIAPSIS":"539.043","ELEMENT_SET_NO":"999","FILE":"3926571","SEMIMAJOR_AXIS":"6917.837","OBJECT_NAME":"STARLINK-4478","OBJECT_TYPE":"PAYLOAD","MEAN_MOTION":"15.08854033","COUNTRY_CODE":"US","MEAN_MOTION_DOT":"0.00009684","INCLINATION":"53.2152","EPHEMERIS_TYPE":"0","REV_AT_EPOCH":"4415","MEAN_ELEMENT_THEORY":"SGP4","REF_FRAME":"TEME","PERIOD":"95.437","TIME_SYSTEM":"UTC","MEAN_MOTION_DDOT":"0.0000000000000","TLE_LINE1":"1 53529U 22101C   23157.79061565  .00009684  00000-0  62544-3 0  9998","LAUNCH_DATE":"2022-08-19","CLASSIFICATION_TYPE":"U","EPOCH":"2023-06-06T18:58:29.192160","DECAY_DATE":null,"CENTER_NAME":"EARTH","SITE":"AFETR","BSTAR":"0.00062544000000","ECCENTRICITY":"0.00009540","TLE_LINE2":"2 53529  53.2152 274.2693 0000954  52.7784 307.3295 15.08854033 44158","NORAD_CAT_ID":"53529","APOAPSIS":"540.362","ARG_OF_PERICENTER":"52.7784","OBJECT_ID":"2022-101C","RA_OF_ASC_NODE":"274.2693","RCS_SIZE":"LARGE","MEAN_ANOMALY":"307.3295"},{"MEAN_ELEMENT_THEORY":"SGP4","REF_FRAME":"TEME","REV_AT_EPOCH":"4415","EPHEMERIS_TYPE":"0","INCLINATION":"53.2153","MEAN_MOTION":"15.08854778","OBJECT_TYPE":"PAYLOAD","COUNTRY_CODE":"US","MEAN_MOTION_DOT":"0.00003335","GP_ID":"233358864","SEMIMAJOR_AXIS":"6917.835","OBJECT_NAME":"STARLINK-4482","FILE":"3926571","ELEMENT_SET_NO":"999","PERIAPSIS":"538.862","RA_OF_ASC_NODE":"274.2968","MEAN_ANOMALY":"272.7692","RCS_SIZE":"LARGE","NORAD_CAT_ID":"53530","TLE_LINE2":"2 53530  53.2153 274.2968 0001211  87.3439 272.7692 15.08854778 44156","OBJECT_ID":"2022-101D","ARG_OF_PERICENTER":"87.3439","APOAPSIS":"540.538","CENTER_NAME":"EARTH","DECAY_DATE":null,"EPOCH":"2023-06-06T18:49:15.546144","BSTAR":"0.00022742000000","SITE":"AFETR","ECCENTRICITY":"0.00012110","TLE_LINE1":"1 53530U 22101D   23157.78420771  .00003335  00000-0  22742-3 0  9990","MEAN_MOTION_DDOT":"0.0000000000000","TIME_SYSTEM":"UTC","PERIOD":"95.437","CLASSIFICATION_TYPE":"U","LAUNCH_DATE":"2022-08-19"},{"MEAN_MOTION_DDOT":"0.0000000000000","TLE_LINE1":"1 53531U 22101E   23157.78693203  .00002869  00000-0  19821-3 0  9998","TIME_SYSTEM":"UTC","PERIOD":"95.437","CLASSIFICATION_TYPE":"U","LAUNCH_DATE":"2022-08-19","CENTER_NAME":"EARTH","DECAY_DATE":null,"EPOCH":"2023-06-06T18:53:10.927392","ECCENTRICITY":"0.00010150","SITE":"AFETR","BSTAR":"0.00019821000000","NORAD_CAT_ID":"53531","TLE_LINE2":"2 53531  53.2158 274.2842 0001015  85.2914 274.8194 15.08853408 44159","OBJECT_ID":"2022-101E","ARG_OF_PERICENTER":"85.2914","APOAPSIS":"540.407","RA_OF_ASC_NODE":"274.2842","MEAN_ANOMALY":"274.8194","RCS_SIZE":"LARGE","GP_ID":"233359116","SEMIMAJOR_AXIS":"6917.839","OBJECT_NAME":"STARLINK-4487","FILE":"3926571","ELEMENT_SET_NO":"999","PERIAPSIS":"539.002","MEAN_MOTION":"15.08853408","OBJECT_TYPE":"PAYLOAD","MEAN_MOTION_DOT":"0.00002869","COUNTRY_CODE":"US","REV_AT_EPOCH":"4415","EPHEMERIS_TYPE":"0","INCLINATION":"53.2158","MEAN_ELEMENT_THEORY":"SGP4","REF_FRAME":"TEME"},{"SITE":"AFETR","BSTAR":"0.00007711100000","ECCENTRICITY":"0.00011270","CENTER_NAME":"EARTH","EPOCH":"2023-06-06T18:05:29.543424","DECAY_DATE":null,"CLASSIFICATION_TYPE":"U","LAUNCH_DATE":"2022-08-19","TLE_LINE1":"1 53532U 22101F   23157.75381416  .00000940  00000-0  77111-4 0  9991","MEAN_MOTION_DDOT":"0.0000000000000","TIME_SYSTEM":"UTC","PERIOD":"95.437","MEAN_ANOMALY":"257.1148","RCS_SIZE":"LARGE","RA_OF_ASC_NODE":"274.4291","OBJECT_ID":"2022-101F","ARG_OF_PERICENTER":"102.9970","APOAPSIS":"540.512","TLE_LINE2":"2 53532  53.2165 274.4291 0001127 102.9970 257.1148 15.08844139 44155","NORAD_CAT_ID":"53532","MEAN_MOTION_DOT":"0.00000940","COUNTRY_CODE":"US","MEAN_MOTION":"15.08844139","OBJECT_TYPE":"PAYLOAD","SEMIMAJOR_AXIS":"6917.868","OBJECT_NAME":"STARLINK-4483","FILE":"3926571","ELEMENT_SET_NO":"999","PERIAPSIS":"538.953","GP_ID":"233359367","REF_FRAME":"TEME","MEAN_ELEMENT_THEORY":"SGP4","REV_AT_EPOCH":"4415","EPHEMERIS_TYPE":"0","INCLINATION":"53.2165"}];
